SENTINEL-6              
1 46984U 20086A   23245.81914409 -.00000045  00000+0  69007-4 0  9994
2 46984  66.0401  90.2141 0007851 268.5361  91.4755 12.80929522129899
